H1 CPF  1  DGF 2022 08 02 12  7141 larets     NONE      
H2   304206 5557    27944 2022 07 31 00 00 00 2022 08 07 00 00 00    30 1 1  0 0 0
H5  0.0650
H9
10 0 59797  75600.000000  0      -1797302.287      -6431784.408      -2302022.537
10 0 59797  75630.000000  0      -1823640.859      -6345875.927      -2511588.367
10 0 59797  75660.000000  0      -1847741.479      -6253427.275      -2718590.600
10 0 59797  75690.000000  0      -1869551.971      -6154544.163      -2922818.873
10 0 59797  75720.000000  0      -1889022.985      -6049339.020      -3124065.812
10 0 59797  75750.000000  0      -1906108.074      -5937930.853      -3322127.248
10 0 59797  75780.000000  0      -1920763.763      -5820445.097      -3516802.422
10 0 59797  75810.000000  0      -1932949.617      -5697013.462      -3707894.182
10 0 59797  75840.000000  0      -1942628.307      -5567773.777      -3895209.186
10 0 59797  75870.000000  0      -1949765.667      -5432869.815      -4078558.088
10 0 59797  75900.000000  0      -1954330.751      -5292451.134      -4257755.724
10 0 59797  75930.000000  0      -1956295.885      -5146672.889      -4432621.295
10 0 59797  75960.000000  0      -1955636.715      -4995695.657      -4602978.542
10 0 59797  75990.000000  0      -1952332.246      -4839685.250      -4768655.914
10 0 59797  76020.000000  0      -1946364.890      -4678812.520      -4929486.735
10 0 59797  76050.000000  0      -1937720.492      -4513253.167      -5085309.364
10 0 59797  76080.000000  0      -1926388.364      -4343187.537      -5235967.343
10 0 59797  76110.000000  0      -1912361.313      -4168800.421      -5381309.552
10 0 59797  76140.000000  0      -1895635.660      -3990280.843      -5521190.345
10 0 59797  76170.000000  0      -1876211.260      -3807821.855      -5655469.690
10 0 59797  76200.000000  0      -1854091.513      -3621620.317      -5784013.295
10 0 59797  76230.000000  0      -1829283.375      -3431876.685      -5906692.735
10 0 59797  76260.000000  0      -1801797.360      -3238794.787      -6023385.571
10 0 59797  76290.000000  0      -1771647.542      -3042581.600      -6133975.456
10 0 59797  76320.000000  0      -1738851.547      -2843447.027      -6238352.241
10 0 59797  76350.000000  0      -1703430.551      -2641603.668      -6336412.074
10 0 59797  76380.000000  0      -1665409.258      -2437266.597      -6428057.487
10 0 59797  76410.000000  0      -1624815.892      -2230653.128      -6513197.483
10 0 59797  76440.000000  0      -1581682.171      -2021982.592      -6591747.615
10 0 59797  76470.000000  0      -1536043.285      -1811476.099      -6663630.059
10 0 59797  76500.000000  0      -1487937.866      -1599356.314      -6728773.681
10 0 59797  76530.000000  0      -1437407.956      -1385847.218      -6787114.097
10 0 59797  76560.000000  0      -1384498.966      -1171173.882      -6838593.726
10 0 59797  76590.000000  0      -1329259.645       -955562.229      -6883161.840
10 0 59797  76620.000000  0      -1271742.026       -739238.804      -6920774.603
10 0 59797  76650.000000  0      -1212001.381       -522430.543      -6951395.111
10 0 59797  76680.000000  0      -1150096.165       -305364.540      -6974993.416
10 0 59797  76710.000000  0      -1086087.961        -88267.818      -6991546.553
10 0 59797  76740.000000  0      -1020041.417        128632.898      -7001038.556
10 0 59797  76770.000000  0       -952024.185        345111.411      -7003460.474
10 0 59797  76800.000000  0       -882106.849        560942.284      -6998810.377
10 0 59797  76830.000000  0       -810362.858        775901.065      -6987093.355
10 0 59797  76860.000000  0       -736868.445        989764.518      -6968321.508
10 0 59797  76890.000000  0       -661702.557       1202310.841      -6942513.932
10 0 59797  76920.000000  0       -584946.765       1413319.887      -6909696.702
10 0 59797  76950.000000  0       -506685.189       1622573.386      -6869902.853
10 0 59797  76980.000000  0       -427004.402       1829855.163      -6823172.348
10 0 59797  77010.000000  0       -345993.343       2034951.360      -6769552.045
10 0 59797  77040.000000  0       -263743.217       2237650.648      -6709095.652
10 0 59797  77070.000000  0       -180347.398       2437744.441      -6641863.687
10 0 59797  77100.000000  0        -95901.327       2635027.108      -6567923.415
10 0 59797  77130.000000  0        -10502.404       2829296.181      -6487348.798
10 0 59797  77160.000000  0         75750.118       3020352.562      -6400220.421
10 0 59797  77190.000000  0        162755.246       3208000.725      -6306625.417
10 0 59797  77220.000000  0        250410.362       3392048.912      -6206657.388
10 0 59797  77250.000000  0        338611.333       3572309.322      -6100416.318
10 0 59797  77280.000000  0        427252.634       3748598.308      -5988008.489
10 0 59797  77310.000000  0        516227.466       3920736.556      -5869546.380
10 0 59797  77340.000000  0        605427.879       4088549.277      -5745148.571
10 0 59797  77370.000000  0        694744.902       4251866.384      -5614939.629
10 0 59797  77400.000000  0        784068.665       4410522.665      -5479049.999
10 0 59797  77430.000000  0        873288.532       4564357.956      -5337615.881
10 0 59797  77460.000000  0        962293.232       4713217.309      -5190779.109
10 0 59797  77490.000000  0       1050970.993       4856951.156      -5038687.013
10 0 59797  77520.000000  0       1139209.678       4995415.461      -4881492.279
10 0 59797  77550.000000  0       1226896.921       5128471.872      -4719352.812
10 0 59797  77580.000000  0       1313920.264       5255987.866      -4552431.578
10 0 59797  77610.000000  0       1400167.298       5377836.887      -4380896.452
10 0 59797  77640.000000  0       1485525.799       5493898.477      -4204920.060
10 0 59797  77670.000000  0       1569883.873       5604058.406      -4024679.611
10 0 59797  77700.000000  0       1653130.093       5708208.792      -3840356.729
10 0 59797  77730.000000  0       1735153.641       5806248.216      -3652137.275
10 0 59797  77760.000000  0       1815844.452       5898081.829      -3460211.168
10 0 59797  77790.000000  0       1895093.355       5983621.458      -3264772.198
10 0 59797  77820.000000  0       1972792.215       6062785.694      -3066017.836
10 0 59797  77850.000000  0       2048834.074       6135499.986      -2864149.039
10 0 59797  77880.000000  0       2123113.294       6201696.720      -2659370.050
10 0 59797  77910.000000  0       2195525.696       6261315.286      -2451888.191
10 0 59797  77940.000000  0       2265968.699       6314302.152      -2241913.659
10 0 59797  77970.000000  0       2334341.462       6360610.913      -2029659.310
10 0 59797  78000.000000  0       2400545.016       6400202.344      -1815340.445
10 0 59797  78030.000000  0       2464482.402       6433044.441      -1599174.586
10 0 59797  78060.000000  0       2526058.805       6459112.449      -1381381.261
10 0 59797  78090.000000  0       2585181.683       6478388.890      -1162181.773
10 0 59797  78120.000000  0       2641760.899       6490863.578       -941798.974
10 0 59797  78150.000000  0       2695708.846       6496533.623       -720457.038
10 0 59797  78180.000000  0       2746940.572       6495403.432       -498381.226
10 0 59797  78210.000000  0       2795373.903       6487484.701       -275797.653
10 0 59797  78240.000000  0       2840929.557       6472796.392        -52933.059
10 0 59797  78270.000000  0       2883531.265       6451364.710        169985.432
10 0 59797  78300.000000  0       2923105.880       6423223.071        392730.542
10 0 59797  78330.000000  0       2959583.487       6388412.055        615075.082
10 0 59797  78360.000000  0       2992897.508       6346979.360        836792.181
10 0 59797  78390.000000  0       3022984.805       6298979.740       1057655.531
10 0 59797  78420.000000  0       3049785.775       6244474.941       1277439.620
10 0 59797  78450.000000  0       3073244.443       6183533.621       1495919.970
10 0 59797  78480.000000  0       3093308.555       6116231.272       1712873.367
10 0 59797  78510.000000  0       3109929.659       6042650.123       1928078.103
10 0 59797  78540.000000  0       3123063.187       5962879.049       2141314.201
10 0 59797  78570.000000  0       3132668.533       5877013.458       2352363.650
10 0 59797  78600.000000  0       3138709.123       5785155.180       2561010.633
10 0 59797  78630.000000  0       3141152.479       5687412.341       2767041.757
10 0 59797  78660.000000  0       3139970.283       5583899.240       2970246.272
10 0 59797  78690.000000  0       3135138.434       5474736.206       3170416.296
10 0 59797  78720.000000  0       3126637.098       5360049.458       3367347.026
10 0 59797  78750.000000  0       3114450.756       5239970.959       3560836.953
10 0 59797  78780.000000  0       3098568.250       5114638.263       3750688.074
10 0 59797  78810.000000  0       3078982.811       4984194.353       3936706.105
10 0 59797  78840.000000  0       3055692.093       4848787.473       4118700.682
10 0 59797  78870.000000  0       3028698.191       4708570.950       4296485.566
10 0 59797  78900.000000  0       2998007.659       4563703.013       4469878.831
10 0 59797  78930.000000  0       2963631.518       4414346.604       4638703.054
10 0 59797  78960.000000  0       2925585.262       4260669.192       4802785.488
10 0 59797  78990.000000  0       2883888.863       4102842.575       4961958.240
10 0 59797  79020.000000  0       2838566.770       3941042.693       5116058.440
10 0 59797  79050.000000  0       2789647.895       3775449.418       5264928.406
10 0 59797  79080.000000  0       2737165.606       3606246.356       5408415.811
10 0 59797  79110.000000  0       2681157.702       3433620.633       5546373.824
10 0 59797  79140.000000  0       2621666.395       3257762.689       5678661.267
10 0 59797  79170.000000  0       2558738.279       3078866.066       5805142.754
99
